{
    "links": {
        "self": "http://www.neowsapp.com/rest/v1/neo/3555203?api_key=iIulBulltgU6a56xZRHN4H3l9WmuAYTsLGpBGhQ2"
    },
    "id": "3555203",
    "neo_reference_id": "3555203",
    "name": "(2011 AK37)",
    "designation": "2011 AK37",
    "nasa_jpl_url": "http://ssd.jpl.nasa.gov/sbdb.cgi?sstr=3555203",
    "absolute_magnitude_h": 25.1,
    "estimated_diameter": {
        "kilometers": {
            "estimated_diameter_min": 0.0253837029,
            "estimated_diameter_max": 0.0567596853
        },
        "meters": {
            "estimated_diameter_min": 25.3837029364,
            "estimated_diameter_max": 56.7596852866
        },
        "miles": {
            "estimated_diameter_min": 0.0157726969,
            "estimated_diameter_max": 0.0352688224
        },
        "feet": {
            "estimated_diameter_min": 83.279867942,
            "estimated_diameter_max": 186.2194458756
        }
    },
    "is_potentially_hazardous_asteroid": false,
    "close_approach_data": [
        {
            "close_approach_date": "1973-01-19",
            "close_approach_date_full": "1973-Jan-19 03:42",
            "epoch_date_close_approach": 96262920000,
            "relative_velocity": {
                "kilometers_per_second": "12.7817994028",
                "kilometers_per_hour": "46014.4778502398",
                "miles_per_hour": "28591.6070842226"
            },
            "miss_distance": {
                "astronomical": "0.0676941471",
                "lunar": "26.3330232219",
                "kilometers": "10126900.217626677",
                "miles": "6292564.0051630626"
            },
            "orbiting_body": "Earth"
        },
        {
            "close_approach_date": "1984-01-08",
            "close_approach_date_full": "1984-Jan-08 17:37",
            "epoch_date_close_approach": 442431420000,
            "relative_velocity": {
                "kilometers_per_second": "10.0773099027",
                "kilometers_per_hour": "36278.3156496847",
                "miles_per_hour": "22541.9345213277"
            },
            "miss_distance": {
                "astronomical": "1.9438010438",
                "lunar": "756.1386060382",
                "kilometers": "290788495.856256706",
                "miles": "180687592.7300703028"
            },
            "orbiting_body": "Juptr"
        },
        {
            "close_approach_date": "2011-01-03",
            "close_approach_date_full": "2011-Jan-03 04:13",
            "epoch_date_close_approach": 1294027980000,
            "relative_velocity": {
                "kilometers_per_second": "9.7172979427",
                "kilometers_per_hour": "34982.272593634",
                "miles_per_hour": "21736.6237679722"
            },
            "miss_distance": {
                "astronomical": "0.0281488973",
                "lunar": "10.9499210497",
                "kilometers": "4211015.078928751",
                "miles": "2616603.4365327238"
            },
            "orbiting_body": "Earth"
        },
        {
            "close_approach_date": "2090-08-24",
            "close_approach_date_full": "2090-Aug-24 10:51",
            "epoch_date_close_approach": 3807255060000,
            "relative_velocity": {
                "kilometers_per_second": "9.2953753714",
                "kilometers_per_hour": "33463.3513371342",
                "miles_per_hour": "20792.8251683432"
            },
            "miss_distance": {
                "astronomical": "1.8701224974",
                "lunar": "727.4776514886",
                "kilometers": "279766342.250120538",
                "miles": "173838744.0645499044"
            },
            "orbiting_body": "Juptr"
        },
        {
            "close_approach_date": "2162-10-08",
            "close_approach_date_full": "2162-Oct-08 08:27",
            "epoch_date_close_approach": 6083195220000,
            "relative_velocity": {
                "kilometers_per_second": "23.9278023055",
                "kilometers_per_hour": "86140.0882997964",
                "miles_per_hour": "53524.1009771707"
            },
            "miss_distance": {
                "astronomical": "0.4189443497",
                "lunar": "162.9693520333",
                "kilometers": "62673182.363655139",
                "miles": "38943309.6955093582"
            },
            "orbiting_body": "Earth"
        }
    ],
    "orbital_data": {
        "orbit_id": "10",
        "orbit_determination_date": "2019-04-23 07:24:10",
        "first_observation_date": "2011-01-13",
        "last_observation_date": "2011-02-11",
        "data_arc_in_days": 29,
        "observations_used": 34,
        "orbit_uncertainty": "7",
        "minimum_orbit_intersection": ".019727",
        "jupiter_tisserand_invariant": "2.941",
        "epoch_osculation": "2459000.5",
        "eccentricity": ".6601467443203881",
        "semi_major_axis": "2.837601449132025",
        "inclination": "3.619627038534226",
        "ascending_node_longitude": "118.7678612359809",
        "orbital_period": "1745.92475494172",
        "perihelion_distance": ".9643680908087033",
        "perihelion_argument": "321.8995066434557",
        "aphelion_distance": "4.710834807455347",
        "perihelion_time": "2459053.267773093072",
        "mean_anomaly": "349.1195778857376",
        "mean_motion": ".2061944531005959",
        "equinox": "J2000",
        "orbit_class": {
            "orbit_class_type": "APO",
            "orbit_class_description": "Near-Earth asteroid orbits which cross the Earth’s orbit similar to that of 1862 Apollo",
            "orbit_class_range": "a (semi-major axis) > 1.0 AU; q (perihelion) < 1.017 AU"
        }
    },
    "is_sentry_object": false
}